{
    "links": {
        "self": "http://www.neowsapp.com/rest/v1/neo/3727179?api_key=iIulBulltgU6a56xZRHN4H3l9WmuAYTsLGpBGhQ2"
    },
    "id": "3727179",
    "neo_reference_id": "3727179",
    "name": "(2015 RH36)",
    "designation": "2015 RH36",
    "nasa_jpl_url": "http://ssd.jpl.nasa.gov/sbdb.cgi?sstr=3727179",
    "absolute_magnitude_h": 23.6,
    "estimated_diameter": {
        "kilometers": {
            "estimated_diameter_min": 0.0506471459,
            "estimated_diameter_max": 0.1132504611
        },
        "meters": {
            "estimated_diameter_min": 50.6471458835,
            "estimated_diameter_max": 113.2504610618
        },
        "miles": {
            "estimated_diameter_min": 0.0314706677,
            "estimated_diameter_max": 0.0703705522
        },
        "feet": {
            "estimated_diameter_min": 166.1651821003,
            "estimated_diameter_max": 371.5566426699
        }
    },
    "is_potentially_hazardous_asteroid": false,
    "close_approach_data": [
        {
            "close_approach_date": "1975-10-19",
            "close_approach_date_full": "1975-Oct-19 19:44",
            "epoch_date_close_approach": 182979840000,
            "relative_velocity": {
                "kilometers_per_second": "16.9469622767",
                "kilometers_per_hour": "61009.0641961675",
                "miles_per_hour": "37908.6599167798"
            },
            "miss_distance": {
                "astronomical": "0.4558903971",
                "lunar": "177.3413644719",
                "kilometers": "68200232.359614177",
                "miles": "42377659.3100905626"
            },
            "orbiting_body": "Earth"
        },
        {
            "close_approach_date": "2015-09-07",
            "close_approach_date_full": "2015-Sep-07 11:50",
            "epoch_date_close_approach": 1441626600000,
            "relative_velocity": {
                "kilometers_per_second": "7.2717413945",
                "kilometers_per_hour": "26178.2690200377",
                "miles_per_hour": "16266.1583252562"
            },
            "miss_distance": {
                "astronomical": "0.1093378172",
                "lunar": "42.5324108908",
                "kilometers": "16356704.563569364",
                "miles": "10163584.9241066632"
            },
            "orbiting_body": "Earth"
        },
        {
            "close_approach_date": "2102-10-22",
            "close_approach_date_full": "2102-Oct-22 06:27",
            "epoch_date_close_approach": 4190941620000,
            "relative_velocity": {
                "kilometers_per_second": "16.8863971106",
                "kilometers_per_hour": "60791.0295980124",
                "miles_per_hour": "37773.1816966094"
            },
            "miss_distance": {
                "astronomical": "0.4575616004",
                "lunar": "177.9914625556",
                "kilometers": "68450240.813631148",
                "miles": "42533007.3598319224"
            },
            "orbiting_body": "Earth"
        },
        {
            "close_approach_date": "2142-09-09",
            "close_approach_date_full": "2142-Sep-09 22:37",
            "epoch_date_close_approach": 5449588620000,
            "relative_velocity": {
                "kilometers_per_second": "7.3175007838",
                "kilometers_per_hour": "26343.0028215342",
                "miles_per_hour": "16368.5175031916"
            },
            "miss_distance": {
                "astronomical": "0.1082338078",
                "lunar": "42.1029512342",
                "kilometers": "16191547.108869386",
                "miles": "10060960.8404980868"
            },
            "orbiting_body": "Earth"
        }
    ],
    "orbital_data": {
        "orbit_id": "21",
        "orbit_determination_date": "2017-04-06 08:32:04",
        "first_observation_date": "2015-09-11",
        "last_observation_date": "2015-11-04",
        "data_arc_in_days": 54,
        "observations_used": 75,
        "orbit_uncertainty": "6",
        "minimum_orbit_intersection": ".104854",
        "jupiter_tisserand_invariant": "3.337",
        "epoch_osculation": "2459000.5",
        "eccentricity": ".5298815957410534",
        "semi_major_axis": "2.360811368308719",
        "inclination": "7.457827776518541",
        "ascending_node_longitude": "168.8045754568388",
        "orbital_period": "1324.92214362358",
        "perihelion_distance": "1.109860873225675",
        "perihelion_argument": "184.4531087779959",
        "aphelion_distance": "3.611761863391763",
        "perihelion_time": "2458603.172089438396",
        "mean_anomaly": "107.9595872788246",
        "mean_motion": ".2717140789989533",
        "equinox": "J2000",
        "orbit_class": {
            "orbit_class_type": "AMO",
            "orbit_class_description": "Near-Earth asteroid orbits similar to that of 1221 Amor",
            "orbit_class_range": "1.017 AU < q (perihelion) < 1.3 AU"
        }
    },
    "is_sentry_object": false
}